[{"OBJECT_NAME":"KUIPER-00098","OBJECT_ID":"2025-171F","EPOCH":"2026-03-02T18:48:53.999712","MEAN_MOTION":14.79942164,"ECCENTRICITY":0.00019714,"INCLINATION":51.8998,"RA_OF_ASC_NODE":193.6246,"ARG_OF_PERICENTER":140.0957,"MEAN_ANOMALY":220.0151,"EPHEMERIS_TYPE":0,"CLASSIFICATION_TYPE":"U","NORAD_CAT_ID":65137,"ELEMENT_SET_NO":999,"REV_AT_EPOCH":3114,"BSTAR":0.00082959454,"MEAN_MOTION_DOT":6.11e-5,"MEAN_MOTION_DDOT":0},{"OBJECT_NAME":"KUIPER-00099","OBJECT_ID":"2025-171G","EPOCH":"2026-03-02T18:16:49.868256","MEAN_MOTION":14.79835258,"ECCENTRICITY":4.931e-5,"INCLINATION":51.9022,"RA_OF_ASC_NODE":183.7135,"ARG_OF_PERICENTER":53.3048,"MEAN_ANOMALY":306.796,"EPHEMERIS_TYPE":0,"CLASSIFICATION_TYPE":"U","NORAD_CAT_ID":65138,"ELEMENT_SET_NO":999,"REV_AT_EPOCH":3193,"BSTAR":0.00089343973,"MEAN_MOTION_DOT":6.581e-5,"MEAN_MOTION_DDOT":0},{"OBJECT_NAME":"KUIPER-00100","OBJECT_ID":"2025-171H","EPOCH":"2026-03-02T15:53:49.057440","MEAN_MOTION":14.79941844,"ECCENTRICITY":5.762e-5,"INCLINATION":51.9019,"RA_OF_ASC_NODE":181.6259,"ARG_OF_PERICENTER":97.6411,"MEAN_ANOMALY":262.4617,"EPHEMERIS_TYPE":0,"CLASSIFICATION_TYPE":"U","NORAD_CAT_ID":65139,"ELEMENT_SET_NO":999,"REV_AT_EPOCH":3195,"BSTAR":0.00018262752,"MEAN_MOTION_DOT":1.172e-5,"MEAN_MOTION_DDOT":0},{"OBJECT_NAME":"KUIPER-00102","OBJECT_ID":"2025-171J","EPOCH":"2026-03-02T14:12:39.659616","MEAN_MOTION":14.79951691,"ECCENTRICITY":6.34e-5,"INCLINATION":51.8981,"RA_OF_ASC_NODE":184.4637,"ARG_OF_PERICENTER":92.6679,"MEAN_ANOMALY":267.4356,"EPHEMERIS_TYPE":0,"CLASSIFICATION_TYPE":"U","NORAD_CAT_ID":65140,"ELEMENT_SET_NO":999,"REV_AT_EPOCH":3190,"BSTAR":0.0008378,"MEAN_MOTION_DOT":6.174e-5,"MEAN_MOTION_DDOT":0},{"OBJECT_NAME":"KUIPER-00103","OBJECT_ID":"2025-171K","EPOCH":"2026-03-02T16:11:27.517920","MEAN_MOTION":14.79970006,"ECCENTRICITY":0.00023172,"INCLINATION":51.8981,"RA_OF_ASC_NODE":201.5906,"ARG_OF_PERICENTER":123.4807,"MEAN_ANOMALY":236.6377,"EPHEMERIS_TYPE":0,"CLASSIFICATION_TYPE":"U","NORAD_CAT_ID":65141,"ELEMENT_SET_NO":999,"REV_AT_EPOCH":3167,"BSTAR":0.00078536518,"MEAN_MOTION_DOT":5.776e-5,"MEAN_MOTION_DDOT":0},{"OBJECT_NAME":"KUIPER-00104","OBJECT_ID":"2025-171L","EPOCH":"2026-03-02T18:07:52.480992","MEAN_MOTION":14.79990652,"ECCENTRICITY":3.676e-5,"INCLINATION":51.9012,"RA_OF_ASC_NODE":188.6931,"ARG_OF_PERICENTER":40.1967,"MEAN_ANOMALY":319.9023,"EPHEMERIS_TYPE":0,"CLASSIFICATION_TYPE":"U","NORAD_CAT_ID":65142,"ELEMENT_SET_NO":999,"REV_AT_EPOCH":3186,"BSTAR":0.00082922691,"MEAN_MOTION_DOT":6.115e-5,"MEAN_MOTION_DDOT":0},{"OBJECT_NAME":"KUIPER-00105","OBJECT_ID":"2025-171M","EPOCH":"2026-03-02T15:30:02.056032","MEAN_MOTION":14.8009994,"ECCENTRICITY":4.16e-5,"INCLINATION":51.8998,"RA_OF_ASC_NODE":196.7975,"ARG_OF_PERICENTER":97.6039,"MEAN_ANOMALY":262.497,"EPHEMERIS_TYPE":0,"CLASSIFICATION_TYPE":"U","NORAD_CAT_ID":65143,"ELEMENT_SET_NO":999,"REV_AT_EPOCH":3174,"BSTAR":0.00078935,"MEAN_MOTION_DOT":5.825e-5,"MEAN_MOTION_DDOT":0},{"OBJECT_NAME":"KUIPER-00106","OBJECT_ID":"2025-171N","EPOCH":"2026-03-02T13:37:35.285664","MEAN_MOTION":14.97115327,"ECCENTRICITY":0.0007891,"INCLINATION":51.8936,"RA_OF_ASC_NODE":187.3324,"ARG_OF_PERICENTER":77.3798,"MEAN_ANOMALY":282.8053,"EPHEMERIS_TYPE":0,"CLASSIFICATION_TYPE":"U","NORAD_CAT_ID":65144,"ELEMENT_SET_NO":999,"REV_AT_EPOCH":3187,"BSTAR":0.00074754,"MEAN_MOTION_DOT":8.476e-5,"MEAN_MOTION_DDOT":0},{"OBJECT_NAME":"KUIPER-00107","OBJECT_ID":"2025-171P","EPOCH":"2026-03-02T15:57:51.812064","MEAN_MOTION":14.79956473,"ECCENTRICITY":2.512e-5,"INCLINATION":51.8999,"RA_OF_ASC_NODE":179.1545,"ARG_OF_PERICENTER":55.2643,"MEAN_ANOMALY":304.8343,"EPHEMERIS_TYPE":0,"CLASSIFICATION_TYPE":"U","NORAD_CAT_ID":65145,"ELEMENT_SET_NO":999,"REV_AT_EPOCH":3199,"BSTAR":0.00093611339,"MEAN_MOTION_DOT":6.927e-5,"MEAN_MOTION_DDOT":0},{"OBJECT_NAME":"KUIPER-00108","OBJECT_ID":"2025-171Q","EPOCH":"2026-03-02T14:49:40.684800","MEAN_MOTION":14.79952942,"ECCENTRICITY":0.0001787,"INCLINATION":51.9039,"RA_OF_ASC_NODE":191.8761,"ARG_OF_PERICENTER":153.454,"MEAN_ANOMALY":206.6515,"EPHEMERIS_TYPE":0,"CLASSIFICATION_TYPE":"U","NORAD_CAT_ID":65146,"ELEMENT_SET_NO":999,"REV_AT_EPOCH":3181,"BSTAR":0.00029584,"MEAN_MOTION_DOT":2.036e-5,"MEAN_MOTION_DDOT":0},{"OBJECT_NAME":"KUIPER-00109","OBJECT_ID":"2025-171R","EPOCH":"2026-03-02T15:46:02.459424","MEAN_MOTION":14.79946797,"ECCENTRICITY":5.031e-5,"INCLINATION":51.9015,"RA_OF_ASC_NODE":186.6469,"ARG_OF_PERICENTER":72.1014,"MEAN_ANOMALY":288.0003,"EPHEMERIS_TYPE":0,"CLASSIFICATION_TYPE":"U","NORAD_CAT_ID":65147,"ELEMENT_SET_NO":999,"REV_AT_EPOCH":3188,"BSTAR":0.00085381207,"MEAN_MOTION_DOT":6.296e-5,"MEAN_MOTION_DDOT":0},{"OBJECT_NAME":"KUIPER-00110","OBJECT_ID":"2025-171S","EPOCH":"2026-03-02T16:16:46.291584","MEAN_MOTION":14.79892187,"ECCENTRICITY":0.00020191,"INCLINATION":51.9001,"RA_OF_ASC_NODE":199.1524,"ARG_OF_PERICENTER":167.2066,"MEAN_ANOMALY":192.8948,"EPHEMERIS_TYPE":0,"CLASSIFICATION_TYPE":"U","NORAD_CAT_ID":65148,"ELEMENT_SET_NO":999,"REV_AT_EPOCH":3170,"BSTAR":0.00078032942,"MEAN_MOTION_DOT":5.727e-5,"MEAN_MOTION_DDOT":0},{"OBJECT_NAME":"KUIPER-00111","OBJECT_ID":"2025-171T","EPOCH":"2026-03-02T15:18:43.610400","MEAN_MOTION":14.79984234,"ECCENTRICITY":0.000193,"INCLINATION":51.8968,"RA_OF_ASC_NODE":204.231,"ARG_OF_PERICENTER":133.3609,"MEAN_ANOMALY":226.7514,"EPHEMERIS_TYPE":0,"CLASSIFICATION_TYPE":"U","NORAD_CAT_ID":65149,"ELEMENT_SET_NO":999,"REV_AT_EPOCH":3163,"BSTAR":0.00075587,"MEAN_MOTION_DOT":5.553e-5,"MEAN_MOTION_DDOT":0},{"OBJECT_NAME":"KUIPER-00112","OBJECT_ID":"2025-171U","EPOCH":"2026-03-02T13:20:20.472864","MEAN_MOTION":14.79958764,"ECCENTRICITY":3.78e-5,"INCLINATION":51.9018,"RA_OF_ASC_NODE":187.1507,"ARG_OF_PERICENTER":104.0642,"MEAN_ANOMALY":256.0363,"EPHEMERIS_TYPE":0,"CLASSIFICATION_TYPE":"U","NORAD_CAT_ID":65150,"ELEMENT_SET_NO":999,"REV_AT_EPOCH":3186,"BSTAR":0.00077651,"MEAN_MOTION_DOT":5.707e-5,"MEAN_MOTION_DDOT":0},{"OBJECT_NAME":"KUIPER-00114","OBJECT_ID":"2025-171V","EPOCH":"2026-03-02T16:52:14.413440","MEAN_MOTION":14.79935833,"ECCENTRICITY":0.00014146,"INCLINATION":51.9,"RA_OF_ASC_NODE":206.4991,"ARG_OF_PERICENTER":127.5848,"MEAN_ANOMALY":232.5243,"EPHEMERIS_TYPE":0,"CLASSIFICATION_TYPE":"U","NORAD_CAT_ID":65151,"ELEMENT_SET_NO":999,"REV_AT_EPOCH":3160,"BSTAR":0.00039084373,"MEAN_MOTION_DOT":2.76e-5,"MEAN_MOTION_DDOT":0},{"OBJECT_NAME":"KUIPER-00115","OBJECT_ID":"2025-171W","EPOCH":"2026-03-02T17:03:41.817888","MEAN_MOTION":14.79935439,"ECCENTRICITY":6.942e-5,"INCLINATION":51.899,"RA_OF_ASC_NODE":198.9486,"ARG_OF_PERICENTER":90.776,"MEAN_ANOMALY":269.3282,"EPHEMERIS_TYPE":0,"CLASSIFICATION_TYPE":"U","NORAD_CAT_ID":65152,"ELEMENT_SET_NO":999,"REV_AT_EPOCH":3171,"BSTAR":0.00032500322,"MEAN_MOTION_DOT":2.257e-5,"MEAN_MOTION_DDOT":0},{"OBJECT_NAME":"KUIPER-00116","OBJECT_ID":"2025-171X","EPOCH":"2026-03-02T16:07:25.031136","MEAN_MOTION":14.79970243,"ECCENTRICITY":0.000165,"INCLINATION":51.8992,"RA_OF_ASC_NODE":204.1606,"ARG_OF_PERICENTER":126.1285,"MEAN_ANOMALY":233.983,"EPHEMERIS_TYPE":0,"CLASSIFICATION_TYPE":"U","NORAD_CAT_ID":65153,"ELEMENT_SET_NO":999,"REV_AT_EPOCH":3163,"BSTAR":0.0008105,"MEAN_MOTION_DOT":5.968e-5,"MEAN_MOTION_DDOT":0}]
